{
  "norad_id": 51139,
  "name": "STARLINK-3172",
  "history": [
    {
      "epoch": "2026-03-28T17:18:16.585056Z",
      "apogee_km": 540.6566513031294,
      "perigee_km": 538.8330976410198,
      "latitude_deg": 4.625818951058876e-06,
      "longitude_deg": 127.98948822798529,
      "height_km": 540.4867849512111,
      "semi_major_axis_km": 6917.881874472075,
      "eccentricity": 0.0001318,
      "inclination_deg": 53.216,
      "raan_deg": 213.696,
      "arg_perigee_deg": 80.2931,
      "mean_anomaly_deg": 279.821,
      "mean_motion_rev_day": 15.08839514
    }
  ]
}